CCSDS_OMM_VERS,COMMENT,CREATION_DATE,ORIGINATOR,OBJECT_NAME,OBJECT_ID,CENTER_NAME,REF_FRAME,TIME_SYSTEM,MEAN_ELEMENT_THEORY,EPOCH,MEAN_MOTION,ECCENTRICITY,INCLINATION,RA_OF_ASC_NODE,ARG_OF_PERICENTER,MEAN_ANOMALY,EPHEMERIS_TYPE,CLASSIFICATION_TYPE,NORAD_CAT_ID,ELEMENT_SET_NO,REV_AT_EPOCH,BSTAR,MEAN_MOTION_DOT,MEAN_MOTION_DDOT,SEMIMAJOR_AXIS,PERIOD,APOAPSIS,PERIAPSIS,OBJECT_TYPE,RCS_SIZE,COUNTRY_CODE,LAUNCH_DATE,SITE,DECAY_DATE,FILE,GP_ID,TLE_LINE0,TLE_LINE1,TLE_LINE2
2,GENERATED VIA SPACE-TRACK.ORG API,2023-05-04T02:34:13,18 SPCS,LEASAT 5,1990-002B,EARTH,TEME,UTC,SGP4,2023-05-03T19:29:46.783392,0.99595784,0.0007767,11.3879,357.7952,65.333,210.2954,0,U,20410,999,10706,0.0,-3.18e-06,0,42355.311,1445.844,36010.073,35944.278,PAYLOAD,LARGE,US,1990-01-09,AFETR,,3900281,231181181,0 LEASAT 5,1 20410U 90002B   23123.81234703 -.00000318  00000-0  00000-0 0  9990,2 20410  11.3879 357.7952 0007767  65.3330 210.2954  0.99595784107066
2,GENERATED VIA SPACE-TRACK.ORG API,2023-05-04T17:19:46,18 SPCS,LEASAT 5,1990-002B,EARTH,TEME,UTC,SGP4,2023-05-04T13:59:42.789696,0.99595387,0.0007764,11.3876,357.7916,65.4295,126.5674,0,U,20410,999,10707,0.0,-3.08e-06,0,42355.423,1445.85,36010.173,35944.403,PAYLOAD,LARGE,US,1990-01-09,AFETR,,3900892,231221179,0 LEASAT 5,1 20410U 90002B   23124.58313414 -.00000308  00000-0  00000-0 0  9991,2 20410  11.3876 357.7916 0007764  65.4295 126.5674  0.99595387107079
2,GENERATED VIA SPACE-TRACK.ORG API,2023-05-05T03:13:46,18 SPCS,LEASAT 5,1990-002B,EARTH,TEME,UTC,SGP4,2023-05-04T16:50:37.826016,0.99595324,0.0007762,11.3876,357.791,65.4369,169.1174,0,U,20410,999,10707,0.0,-3.07e-06,0,42355.441,1445.851,36010.182,35944.43,PAYLOAD,LARGE,US,1990-01-09,AFETR,,3901186,231254738,0 LEASAT 5,1 20410U 90002B   23124.70182669 -.00000307  00000-0  00000-0 0  9990,2 20410  11.3876 357.7910 0007762  65.4369 169.1174  0.99595324107072
2,GENERATED VIA SPACE-TRACK.ORG API,2023-05-05T07:06:17,18 SPCS,LEASAT 5,1990-002B,EARTH,TEME,UTC,SGP4,2023-05-05T00:23:58.329312,0.99595157,0.0007762,11.3874,357.7895,65.4426,281.9913,0,U,20410,999,10707,0.0,-3.02e-06,0,42355.488,1445.853,36010.23,35944.477,PAYLOAD,LARGE,US,1990-01-09,AFETR,,3901250,231278180,0 LEASAT 5,1 20410U 90002B   23125.01664733 -.00000302  00000-0  00000+0 0  9996,2 20410  11.3874 357.7895 0007762  65.4426 281.9913  0.99595157107074
2,GENERATED VIA SPACE-TRACK.ORG API,2023-05-06T06:08:23,18 SPCS,LEASAT 5,1990-002B,EARTH,TEME,UTC,SGP4,2023-05-05T14:43:17.721120,0.99594847,0.0007761,11.3872,357.7868,65.5222,135.8781,0,U,20410,999,10708,0.0,-2.94e-06,0,42355.576,1445.858,36010.313,35944.569,PAYLOAD,LARGE,US,1990-01-09,AFETR,,3901993,231300568,0 LEASAT 5,1 20410U 90002B   23125.61339955 -.00000294  00000-0  00000-0 0  9998,2 20410  11.3872 357.7868 0007761  65.5222 135.8781  0.99594847107082
2,GENERATED VIA SPACE-TRACK.ORG API,2023-05-07T03:58:47,18 SPCS,LEASAT 5,1990-002B,EARTH,TEME,UTC,SGP4,2023-05-06T14:13:55.913664,0.99594329,0.0007763,11.3869,357.7821,65.5978,127.0411,0,U,20410,999,10709,0.0,-2.79e-06,0,42355.723,1445.865,36010.469,35944.707,PAYLOAD,LARGE,US,1990-01-09,AFETR,,3902298,231333372,0 LEASAT 5,1 20410U 90002B   23126.59300826 -.00000279  00000-0  00000-0 0  9994,2 20410  11.3869 357.7821 0007763  65.5978 127.0411  0.99594329107096
2,GENERATED VIA SPACE-TRACK.ORG API,2023-05-07T14:46:12,18 SPCS,LEASAT 5,1990-002B,EARTH,TEME,UTC,SGP4,2023-05-07T11:24:17.796672,0.99593872,0.0007768,11.3866,357.7779,65.6572,83.2923,0,U,20410,999,10709,0.0,-2.65e-06,0,42355.853,1445.872,36010.62,35944.816,PAYLOAD,LARGE,US,1990-01-09,AFETR,,3903048,231371720,0 LEASAT 5,1 20410U 90002B   23127.47520598 -.00000265  00000-0  00000+0 0  9996,2 20410  11.3866 357.7779 0007768  65.6572  83.2923  0.99593872107094
2,GENERATED VIA SPACE-TRACK.ORG API,2023-05-07T21:13:32,18 SPCS,LEASAT 5,1990-002B,EARTH,TEME,UTC,SGP4,2023-05-07T13:59:24.598176,0.99593818,0.0007769,11.3865,357.7774,65.6689,121.9026,0,U,20410,999,10710,0.0,-2.63e-06,0,42355.868,1445.873,36010.639,35944.827,PAYLOAD,LARGE,US,1990-01-09,AFETR,,3903215,231381339,0 LEASAT 5,1 20410U 90002B   23127.58292359 -.00000263  00000-0  00000-0 0  9998,2 20410  11.3865 357.7774 0007769  65.6689 121.9026  0.99593818107104
2,GENERATED VIA SPACE-TRACK.ORG API,2023-05-09T02:33:34,18 SPCS,LEASAT 5,1990-002B,EARTH,TEME,UTC,SGP4,2023-05-08T13:45:42.458976,0.99593321,0.0007778,11.3862,357.7726,65.7828,116.9238,0,U,20410,999,10711,0.0,-2.48e-06,0,42356.009,1445.88,36010.818,35944.929,PAYLOAD,LARGE,US,1990-01-09,AFETR,,3904305,231456657,0 LEASAT 5,1 20410U 90002B   23128.57340809 -.00000248  00000-0  00000-0 0  9995,2 20410  11.3862 357.7726 0007778  65.7828 116.9238  0.99593321107113
2,GENERATED VIA SPACE-TRACK.ORG API,2023-05-09T21:10:44,18 SPCS,LEASAT 5,1990-002B,EARTH,TEME,UTC,SGP4,2023-05-09T02:30:42.694848,0.99593053,0.0007774,11.386,357.77,65.8625,307.3221,0,U,20410,999,10712,0.0,-2.4e-06,0,42356.085,1445.884,36010.878,35945.022,PAYLOAD,LARGE,US,1990-01-09,AFETR,,3904553,231488927,0 LEASAT 5,1 20410U 90002B   23129.10466082 -.00000240  00000-0  00000-0 0  9999,2 20410  11.3860 357.7700 0007774  65.8625 307.3221  0.99593053107126
2,GENERATED VIA SPACE-TRACK.ORG API,2023-05-10T19:12:59,18 SPCS,LEASAT 5,1990-002B,EARTH,TEME,UTC,SGP4,2023-05-10T01:39:42.743808,0.99592588,0.0007791,11.3857,357.7653,66.0224,293.0082,0,U,20410,999,10712,0.0,-2.25e-06,0,42356.217,1445.891,36011.082,35945.082,PAYLOAD,LARGE,US,1990-01-09,AFETR,,3904555,231516131,0 LEASAT 5,1 20410U 90002B   23130.06924472 -.00000225  00000-0  00000-0 0  9991,2 20410  11.3857 357.7653 0007791  66.0224 293.0082  0.99592588107124
2,GENERATED VIA SPACE-TRACK.ORG API,2023-05-11T05:02:58,18 SPCS,LEASAT 5,1990-002B,EARTH,TEME,UTC,SGP4,2023-05-10T21:14:34.125216,0.99592218,0.0007812,11.3855,357.7613,66.1498,225.4062,0,U,20410,999,10713,0.0,-2.13e-06,0,42356.322,1445.896,36011.275,35945.098,PAYLOAD,LARGE,US,1990-01-09,AFETR,,3904830,231548478,0 LEASAT 5,1 20410U 90002B   23130.88511719 -.00000213  00000-0  00000-0 0  9994,2 20410  11.3855 357.7613 0007812  66.1498 225.4062  0.99592218107134
2,GENERATED VIA SPACE-TRACK.ORG API,2023-05-11T17:34:54,18 SPCS,LEASAT 5,1990-002B,EARTH,TEME,UTC,SGP4,2023-05-11T13:14:20.427648,0.99591929,0.0007827,11.3852,357.758,66.1836,104.3435,0,U,20410,999,10714,0.0,-2.03e-06,0,42356.404,1445.9,36011.421,35945.116,PAYLOAD,LARGE,US,1990-01-09,AFETR,,3905210,231585267,0 LEASAT 5,1 20410U 90002B   23131.55162532 -.00000203  00000-0  00000-0 0  9993,2 20410  11.3852 357.7580 0007827  66.1836 104.3435  0.99591929107144
2,GENERATED VIA SPACE-TRACK.ORG API,2023-05-11T22:36:13,18 SPCS,LEASAT 5,1990-002B,EARTH,TEME,UTC,SGP4,2023-05-11T21:30:54.611424,0.99591779,0.0007833,11.3851,357.7564,66.3087,227.8574,0,U,20410,999,10714,0.0,-1.97e-06,0,42356.446,1445.902,36011.489,35945.133,PAYLOAD,LARGE,US,1990-01-09,AFETR,,3905352,231609355,0 LEASAT 5,1 20410U 90002B   23131.89646541 -.00000197  00000-0  00000+0 0  9998,2 20410  11.3851 357.7564 0007833  66.3087 227.8574  0.99591779107140
2,GENERATED VIA SPACE-TRACK.ORG API,2023-05-12T17:30:28,18 SPCS,LEASAT 5,1990-002B,EARTH,TEME,UTC,SGP4,2023-05-12T13:16:57.572832,0.99591507,0.0007847,11.3849,357.7532,66.3589,103.3603,0,U,20410,999,10715,0.0,-1.87e-06,0,42356.523,1445.906,36011.625,35945.151,PAYLOAD,LARGE,US,1990-01-09,AFETR,,3905921,231653272,0 LEASAT 5,1 20410U 90002B   23132.55344413 -.00000187  00000-0  00000-0 0  9995,2 20410  11.3849 357.7532 0007847  66.3589 103.3603  0.99591507107155
2,GENERATED VIA SPACE-TRACK.ORG API,2023-05-13T02:50:36,18 SPCS,LEASAT 5,1990-002B,EARTH,TEME,UTC,SGP4,2023-05-12T19:38:58.024032,0.995914,0.0007854,11.3848,357.7519,66.473,198.3605,0,U,20410,999,10715,0.0,-1.83e-06,0,42356.554,1445.908,36011.685,35945.152,PAYLOAD,LARGE,US,1990-01-09,AFETR,,3906381,231690843,0 LEASAT 5,1 20410U 90002B   23132.81872713 -.00000183  00000-0  00000-0 0  9999,2 20410  11.3848 357.7519 0007854  66.4730 198.3605  0.99591400107154
2,GENERATED VIA SPACE-TRACK.ORG API,2023-05-13T18:20:06,18 SPCS,LEASAT 5,1990-002B,EARTH,TEME,UTC,SGP4,2023-05-13T15:01:40.075392,0.99591102,0.0007872,11.3846,357.7479,66.6134,127.7155,0,U,20410,999,10716,0.0,-1.69e-06,0,42356.638,1445.912,36011.846,35945.16,PAYLOAD,LARGE,US,1990-01-09,AFETR,,3906915,231729583,0 LEASAT 5,1 20410U 90002B   23133.62615828 -.00000169  00000-0  00000-0 0  9995,2 20410  11.3846 357.7479 0007872  66.6134 127.7155  0.99591102107163
2,GENERATED VIA SPACE-TRACK.ORG API,2023-05-14T02:43:03,18 SPCS,LEASAT 5,1990-002B,EARTH,TEME,UTC,SGP4,2023-05-13T22:02:00.154176,0.99590997,0.0007876,11.3845,357.7465,66.7525,232.2332,0,U,20410,999,10716,0.0,-1.63e-06,0,42356.668,1445.914,36011.893,35945.173,PAYLOAD,LARGE,US,1990-01-09,AFETR,,3907148,231761815,0 LEASAT 5,1 20410U 90002B   23133.91805734 -.00000163  00000-0  00000-0 0  9998,2 20410  11.3845 357.7465 0007876  66.7525 232.2332  0.99590997107166
2,GENERATED VIA SPACE-TRACK.ORG API,2023-05-14T06:46:12,18 SPCS,LEASAT 5,1990-002B,EARTH,TEME,UTC,SGP4,2023-05-14T01:04:38.058816,0.99590953,0.0007874,11.3844,357.7459,66.7763,277.6819,0,U,20410,999,10716,0.0,-1.61e-06,0,42356.68,1445.914,36011.897,35945.194,PAYLOAD,LARGE,US,1990-01-09,AFETR,,3907221,231784876,0 LEASAT 5,1 20410U 90002B   23134.04488494 -.00000161  00000-0  00000+0 0  9990,2 20410  11.3844 357.7459 0007874  66.7763 277.6819  0.99590953107165
2,GENERATED VIA SPACE-TRACK.ORG API,2023-05-14T17:40:53,18 SPCS,LEASAT 5,1990-002B,EARTH,TEME,UTC,SGP4,2023-05-14T14:42:32.017248,0.99590766,0.0007892,11.3842,357.7432,66.8666,121.2355,0,U,20410,999,10717,0.0,-1.5e-06,0,42356.733,1445.917,36012.026,35945.17,PAYLOAD,LARGE,US,1990-01-09,AFETR,,3907744,231802288,0 LEASAT 5,1 20410U 90002B   23134.61287057 -.00000150  00000-0  00000-0 0  9994,2 20410  11.3842 357.7432 0007892  66.8666 121.2355  0.99590766107179
